{"type":"Feature","properties":{},"geometry":{"type":"LineString","coordinates":[[-70.25472,43.65589],[-70.25438,43.65603],[-70.25401,43.6562],[-70.25382,43.65629],[-70.25373,43.65633],[-70.25365,43.65636],[-70.25342,43.65648],[-70.25336,43.65652],[-70.25332,43.65655],[-70.25332,43.65655],[-70.25323,43.6565],[-70.25317,43.65647],[-70.25317,43.65647],[-70.25308,43.65649],[-70.25299,43.65651],[-70.25297,43.65652],[-70.25294,43.65653],[-70.25264,43.6566],[-70.25257,43.65661],[-70.25254,43.65662],[-70.25253,43.65662],[-70.25211,43.65673],[-70.25208,43.65674],[-70.25205,43.65676],[-70.25202,43.65678],[-70.25199,43.65681],[-70.25174,43.65698],[-70.25158,43.65712],[-70.25156,43.65712],[-70.25152,43.65718],[-70.25148,43.65723],[-70.25139,43.65733],[-70.25129,43.65744],[-70.25126,43.6575],[-70.25123,43.65755],[-70.25121,43.6576],[-70.25108,43.65791],[-70.25106,43.65796],[-70.251,43.65825],[-70.25096,43.65844],[-70.25096,43.65844]]}}